start=new Date('2022-11-18T00:00:00.000Z').valueOf();
sats=[{"MEAN_MOTION_DDOT":"0.0000000000000","INCLINATION":"53.0546","RA_OF_ASC_NODE":"274.0312","MEAN_ELEMENT_THEORY":"SGP4","RCS_SIZE":"LARGE","PERIAPSIS":"545.916","TIME_SYSTEM":"UTC","DECAY_DATE":null,"LAUNCH_DATE":"2021-03-11","CENTER_NAME":"EARTH","MEAN_MOTION_DOT":"0.00002137","SEMIMAJOR_AXIS":"6925.331","COUNTRY_CODE":"US","REF_FRAME":"TEME","GP_ID":"218095943","APOAPSIS":"548.477","OBJECT_TYPE":"PAYLOAD","FILE":"3661914","EPOCH":"2022-11-17T19:17:23.745120","ELEMENT_SET_NO":"999","TLE_LINE1":"1 47845U 21018BL  22321.80374705  .00002137  00000-0  16228-3 0  9999","CLASSIFICATION_TYPE":"U","EPHEMERIS_TYPE":"0","MEAN_ANOMALY":"309.7647","ECCENTRICITY":"0.00018490","TLE_LINE2":"2 47845  53.0546 274.0312 0001849  50.3505 309.7647 15.06405697 94543","REV_AT_EPOCH":"9454","PERIOD":"95.592","OBJECT_NAME":"STARLINK-2453","SITE":"AFETR","OBJECT_ID":"2021-018BL","ARG_OF_PERICENTER":"50.3505","BSTAR":"0.00016228000000","NORAD_CAT_ID":"47845","MEAN_MOTION":"15.06405697"},{"NORAD_CAT_ID":"47846","MEAN_MOTION":"15.06406422","BSTAR":"0.00038200000000","SITE":"AFETR","OBJECT_NAME":"STARLINK-2456","ARG_OF_PERICENTER":"45.1761","OBJECT_ID":"2021-018BM","PERIOD":"95.592","TLE_LINE2":"2 47846  53.0518 276.4337 0002037  45.1761 314.9393 15.06406422 94512","REV_AT_EPOCH":"9451","EPHEMERIS_TYPE":"0","ELEMENT_SET_NO":"999","TLE_LINE1":"1 47846U 21018BM  22321.26833975  .00005414  00000-0  38200-3 0  9994","CLASSIFICATION_TYPE":"U","ECCENTRICITY":"0.00020370","MEAN_ANOMALY":"314.9393","FILE":"3661693","EPOCH":"2022-11-17T06:26:24.554400","REF_FRAME":"TEME","OBJECT_TYPE":"PAYLOAD","GP_ID":"218064526","APOAPSIS":"548.605","DECAY_DATE":null,"LAUNCH_DATE":"2021-03-11","TIME_SYSTEM":"UTC","CENTER_NAME":"EARTH","SEMIMAJOR_AXIS":"6925.329","COUNTRY_CODE":"US","MEAN_MOTION_DOT":"0.00005414","RCS_SIZE":"LARGE","PERIAPSIS":"545.783","RA_OF_ASC_NODE":"276.4337","MEAN_ELEMENT_THEORY":"SGP4","INCLINATION":"53.0518","MEAN_MOTION_DDOT":"0.0000000000000"},{"MEAN_MOTION_DDOT":"0.0000000000000","INCLINATION":"53.0536","RA_OF_ASC_NODE":"304.6108","MEAN_ELEMENT_THEORY":"SGP4","RCS_SIZE":"LARGE","PERIAPSIS":"546.041","DECAY_DATE":null,"CENTER_NAME":"EARTH","LAUNCH_DATE":"2021-03-14","TIME_SYSTEM":"UTC","MEAN_MOTION_DOT":"0.00002102","COUNTRY_CODE":"US","SEMIMAJOR_AXIS":"6925.349","REF_FRAME":"TEME","APOAPSIS":"548.387","GP_ID":"218095702","OBJECT_TYPE":"PAYLOAD","FILE":"3661914","EPOCH":"2022-11-17T16:07:38.956224","TLE_LINE1":"1 47860U 21021A   22321.67197866  .00002102  00000-0  16000-3 0  9996","CLASSIFICATION_TYPE":"U","ELEMENT_SET_NO":"999","EPHEMERIS_TYPE":"0","MEAN_ANOMALY":"300.7567","ECCENTRICITY":"0.00016940","TLE_LINE2":"2 47860  53.0536 304.6108 0001694  59.3589 300.7567 15.06399896 93871","REV_AT_EPOCH":"9387","PERIOD":"95.592","OBJECT_NAME":"STARLINK-2258","SITE":"AFETR","OBJECT_ID":"2021-021A","ARG_OF_PERICENTER":"59.3589","BSTAR":"0.00016000000000","NORAD_CAT_ID":"47860","MEAN_MOTION":"15.06399896"},{"OBJECT_TYPE":"PAYLOAD","GP_ID":"218064275","APOAPSIS":"548.651","REF_FRAME":"TEME","EPOCH":"2022-11-17T10:11:22.262208","FILE":"3661693","ECCENTRICITY":"0.00020500","MEAN_ANOMALY":"314.2657","EPHEMERIS_TYPE":"0","TLE_LINE1":"1 47861U 21021B   22321.42456322 -.00001459  00000-0 -79081-4 0  9990","CLASSIFICATION_TYPE":"U","ELEMENT_SET_NO":"999","INCLINATION":"53.0538","MEAN_MOTION_DDOT":"0.0000000000000","MEAN_ELEMENT_THEORY":"SGP4","RA_OF_ASC_NODE":"290.7208","PERIAPSIS":"545.812","RCS_SIZE":"LARGE","COUNTRY_CODE":"US","SEMIMAJOR_AXIS":"6925.366","MEAN_MOTION_DOT":"-0.00001459","LAUNCH_DATE":"2021-03-14","DECAY_DATE":null,"CENTER_NAME":"EARTH","TIME_SYSTEM":"UTC","PERIOD":"95.593","ARG_OF_PERICENTER":"45.8501","OBJECT_ID":"2021-021B","SITE":"AFETR","OBJECT_NAME":"STARLINK-2280","BSTAR":"-0.00007908100000","MEAN_MOTION":"15.06394189","NORAD_CAT_ID":"47861","TLE_LINE2":"2 47861  53.0538 290.7208 0002050  45.8501 314.2657 15.06394189 94153","REV_AT_EPOCH":"9415"},{"PERIAPSIS":"546.051","RCS_SIZE":"LARGE","MEAN_MOTION_DOT":"-0.00000933","COUNTRY_CODE":"US","SEMIMAJOR_AXIS":"6925.363","CENTER_NAME":"EARTH","DECAY_DATE":null,"LAUNCH_DATE":"2021-03-14","TIME_SYSTEM":"UTC","MEAN_MOTION_DDOT":"0.0000000000000","INCLINATION":"53.0541","MEAN_ELEMENT_THEORY":"SGP4","RA_OF_ASC_NODE":"286.1328","MEAN_ANOMALY":"298.1989","ECCENTRICITY":"0.00016990","CLASSIFICATION_TYPE":"U","TLE_LINE1":"1 47862U 21021C   22321.33839961 -.00000933  00000-0 -43753-4 0  9998","ELEMENT_SET_NO":"999","EPHEMERIS_TYPE":"0","APOAPSIS":"548.405","GP_ID":"218065027","OBJECT_TYPE":"PAYLOAD","REF_FRAME":"TEME","EPOCH":"2022-11-17T08:07:17.726304","FILE":"3661693","REV_AT_EPOCH":"9420","TLE_LINE2":"2 47862  53.0541 286.1328 0001699  61.9172 298.1989 15.06395263 94209","BSTAR":"-0.00004375300000","MEAN_MOTION":"15.06395263","NORAD_CAT_ID":"47862","PERIOD":"95.592","OBJECT_ID":"2021-021C","ARG_OF_PERICENTER":"61.9172","OBJECT_NAME":"STARLINK-2291","SITE":"AFETR"},{"REV_AT_EPOCH":"9413","TLE_LINE2":"2 47863  53.0541 294.2249 0001683  69.9948 290.1222 15.06399153 94130","PERIOD":"95.592","OBJECT_ID":"2021-021D","ARG_OF_PERICENTER":"69.9948","OBJECT_NAME":"STARLINK-2293","SITE":"AFETR","BSTAR":"0.00005987700000","MEAN_MOTION":"15.06399153","NORAD_CAT_ID":"47863","MEAN_MOTION_DDOT":"0.0000000000000","INCLINATION":"53.0541","MEAN_ELEMENT_THEORY":"SGP4","RA_OF_ASC_NODE":"294.2249","PERIAPSIS":"546.051","RCS_SIZE":"LARGE","MEAN_MOTION_DOT":"0.00000610","COUNTRY_CODE":"US","SEMIMAJOR_AXIS":"6925.351","DECAY_DATE":null,"LAUNCH_DATE":"2021-03-14","TIME_SYSTEM":"UTC","CENTER_NAME":"EARTH","GP_ID":"218094451","APOAPSIS":"548.382","OBJECT_TYPE":"PAYLOAD","REF_FRAME":"TEME","EPOCH":"2022-11-17T18:16:21.935136","FILE":"3661914","ECCENTRICITY":"0.00016830","MEAN_ANOMALY":"290.1222","CLASSIFICATION_TYPE":"U","TLE_LINE1":"1 47863U 21021D   22321.76136499  .00000610  00000-0  59877-4 0  9996","ELEMENT_SET_NO":"999","EPHEMERIS_TYPE":"0"},{"MEAN_MOTION":"15.06396752","NORAD_CAT_ID":"47864","BSTAR":"0.00013760000000","ARG_OF_PERICENTER":"59.8314","OBJECT_ID":"2021-021E","SITE":"AFETR","OBJECT_NAME":"STARLINK-2304","PERIOD":"95.592","REV_AT_EPOCH":"9418","TLE_LINE2":"2 47864  53.0564 286.1581 0001811  59.8314 300.2854 15.06396752 94184","MEAN_ANOMALY":"300.2854","ECCENTRICITY":"0.00018110","EPHEMERIS_TYPE":"0","CLASSIFICATION_TYPE":"U","TLE_LINE1":"1 47864U 21021E   22321.34209169  .00001768  00000-0  13760-3 0  9991","ELEMENT_SET_NO":"999","EPOCH":"2022-11-17T08:12:36.722016","FILE":"3661693","OBJECT_TYPE":"PAYLOAD","APOAPSIS":"548.478","GP_ID":"218063526","REF_FRAME":"TEME","COUNTRY_CODE":"US","SEMIMAJOR_AXIS":"6925.359","MEAN_MOTION_DOT":"0.00001768","DECAY_DATE":null,"LAUNCH_DATE":"2021-03-14","CENTER_NAME":"EARTH","TIME_SYSTEM":"UTC","PERIAPSIS":"545.969","RCS_SIZE":"LARGE","MEAN_ELEMENT_THEORY":"SGP4","RA_OF_ASC_NODE":"286.1581","INCLINATION":"53.0564","MEAN_MOTION_DDOT":"0.0000000000000"},{"OBJECT_NAME":"STARLINK-2310","SITE":"AFETR","OBJECT_ID":"2021-021F","ARG_OF_PERICENTER":"53.3892","PERIOD":"95.593","NORAD_CAT_ID":"47865","MEAN_MOTION":"15.06393680","BSTAR":"0.00011186000000","TLE_LINE2":"2 47865  53.0555 295.8337 0001806  53.3892 306.7263 15.06393680 94187","REV_AT_EPOCH":"9418","FILE":"3661693","EPOCH":"2022-11-17T09:40:09.090336","REF_FRAME":"TEME","GP_ID":"218063776","APOAPSIS":"548.484","OBJECT_TYPE":"PAYLOAD","CLASSIFICATION_TYPE":"U","TLE_LINE1":"1 47865U 21021F   22321.40288299  .00001385  00000-0  11186-3 0  9995","ELEMENT_SET_NO":"999","EPHEMERIS_TYPE":"0","MEAN_ANOMALY":"306.7263","ECCENTRICITY":"0.00018060","RA_OF_ASC_NODE":"295.8337","MEAN_ELEMENT_THEORY":"SGP4","MEAN_MOTION_DDOT":"0.0000000000000","INCLINATION":"53.0555","TIME_SYSTEM":"UTC","DECAY_DATE":null,"LAUNCH_DATE":"2021-03-14","CENTER_NAME":"EARTH","MEAN_MOTION_DOT":"0.00001385","COUNTRY_CODE":"US","SEMIMAJOR_AXIS":"6925.368","RCS_SIZE":"LARGE","PERIAPSIS":"545.982"},{"PERIOD":"95.592","OBJECT_NAME":"STARLINK-2320","SITE":"AFETR","OBJECT_ID":"2021-021G","ARG_OF_PERICENTER":"58.7606","BSTAR":"0.00000928440000","NORAD_CAT_ID":"47866","MEAN_MOTION":"15.06397598","TLE_LINE2":"2 47866  53.0556 295.8141 0001681  58.7606 301.3548 15.06397598 94230","REV_AT_EPOCH":"9423","REF_FRAME":"TEME","APOAPSIS":"548.385","GP_ID":"218064528","OBJECT_TYPE":"PAYLOAD","FILE":"3661693","EPOCH":"2022-11-17T09:46:49.196640","ELEMENT_SET_NO":"999","TLE_LINE1":"1 47866U 21021G   22321.40751385 -.00000143  00000-0  92844-5 0  9991","CLASSIFICATION_TYPE":"U","EPHEMERIS_TYPE":"0","ECCENTRICITY":"0.00016810","MEAN_ANOMALY":"301.3548","MEAN_MOTION_DDOT":"0.0000000000000","INCLINATION":"53.0556","RA_OF_ASC_NODE":"295.8141","MEAN_ELEMENT_THEORY":"SGP4","RCS_SIZE":"MEDIUM","PERIAPSIS":"546.057","LAUNCH_DATE":"2021-03-14","DECAY_DATE":null,"TIME_SYSTEM":"UTC","CENTER_NAME":"EARTH","MEAN_MOTION_DOT":"-0.00000143","SEMIMAJOR_AXIS":"6925.356","COUNTRY_CODE":"US"},{"EPHEMERIS_TYPE":"0","ELEMENT_SET_NO":"999","TLE_LINE1":"1 47867U 21021H   22321.40106300  .00000539  00000-0  55119-4 0  9994","CLASSIFICATION_TYPE":"U","MEAN_ANOMALY":"313.0913","ECCENTRICITY":"0.00019390","REF_FRAME":"TEME","OBJECT_TYPE":"PAYLOAD","APOAPSIS":"548.564","GP_ID":"218064760","FILE":"3661693","EPOCH":"2022-11-17T09:37:31.843200","RCS_SIZE":"LARGE","PERIAPSIS":"545.879","DECAY_DATE":null,"TIME_SYSTEM":"UTC","LAUNCH_DATE":"2021-03-14","CENTER_NAME":"EARTH","COUNTRY_CODE":"US","SEMIMAJOR_AXIS":"6925.357","MEAN_MOTION_DOT":"0.00000539","INCLINATION":"53.0545","MEAN_MOTION_DDOT":"0.0000000000000","RA_OF_ASC_NODE":"285.8448","MEAN_ELEMENT_THEORY":"SGP4","BSTAR":"0.00005511900000","NORAD_CAT_ID":"47867","MEAN_MOTION":"15.06397366","PERIOD":"95.592","SITE":"AFETR","OBJECT_NAME":"STARLINK-2321","ARG_OF_PERICENTER":"47.0238","OBJECT_ID":"2021-021H","REV_AT_EPOCH":"9417","TLE_LINE2":"2 47867  53.0545 285.8448 0001939  47.0238 313.0913 15.06397366 94178"}];
